[{"OBJECT_NAME":"STARLINK-6173","OBJECT_ID":"2023-061M","EPOCH":"2026-03-09T22:00:01.999584","MEAN_MOTION":15.1346808,"ECCENTRICITY":0.00019643,"INCLINATION":43.0004,"RA_OF_ASC_NODE":195.625,"ARG_OF_PERICENTER":302.6936,"MEAN_ANOMALY":139.781,"EPHEMERIS_TYPE":0,"CLASSIFICATION_TYPE":"U","NORAD_CAT_ID":56385,"ELEMENT_SET_NO":999,"REV_AT_EPOCH":577,"BSTAR":0.0046220395,"MEAN_MOTION_DOT":0.00084928,"MEAN_MOTION_DDOT":0},{"OBJECT_NAME":"ICEYE-X47","OBJECT_ID":"2024-247N","EPOCH":"2026-03-09T23:06:42.412896","MEAN_MOTION":15.1223275,"ECCENTRICITY":0.0001319,"INCLINATION":44.9951,"RA_OF_ASC_NODE":166.568,"ARG_OF_PERICENTER":278.489,"MEAN_ANOMALY":81.5837,"EPHEMERIS_TYPE":0,"CLASSIFICATION_TYPE":"U","NORAD_CAT_ID":62389,"ELEMENT_SET_NO":999,"REV_AT_EPOCH":6715,"BSTAR":0.00039816081,"MEAN_MOTION_DOT":6.747e-5,"MEAN_MOTION_DDOT":0}]
